{
  "type": "FeatureCollection",
  "features": [
    {
      "type": "Feature",
      "geometry": {
        "type": "Polygon",
        "coordinates": [
          [
            [
              9.970654,
              51.5627244
            ],
            [
              9.9713887,
              51.5627244
            ],
            [
              9.9713887,
              51.5634393
            ],
            [
              9.970654,
              51.5634393
            ],
            [
              9.970654,
              51.5627244
            ]
          ]
        ]
      },
      "properties": {
        "tiles": [
          [
            0,
            0,
            0
          ],
          [
            1,
            1,
            0
          ],
          [
            2,
            2,
            1
          ],
          [
            3,
            4,
            2
          ],
          [
            4,
            8,
            5
          ],
          [
            5,
            16,
            10
          ],
          [
            6,
            33,
            21
          ],
          [
            7,
            67,
            42
          ],
          [
            8,
            135,
            85
          ],
          [
            9,
            270,
            170
          ],
          [
            10,
            540,
            340
          ],
          [
            11,
            1080,
            680
          ],
          [
            12,
            2161,
            1360
          ],
          [
            12,
            2161,
            1361
          ],
          [
            13,
            4322,
            2721
          ],
          [
            13,
            4322,
            2722
          ],
          [
            14,
            8645,
            5443
          ],
          [
            14,
            8645,
            5444
          ],
          [
            15,
            17291,
            10887
          ],
          [
            15,
            17291,
            10888
          ],
          [
            16,
            34583,
            21775
          ],
          [
            16,
            34583,
            21776
          ]
        ]
      }
    }
  ]
}