{
  "type": "FeatureCollection",
  "features": [
    {
      "type": "Feature",
      "geometry": {
        "type": "Polygon",
        "coordinates": [
          [
            [
              9.8992016,
              51.5270502
            ],
            [
              9.9002706,
              51.5270502
            ],
            [
              9.9002706,
              51.5277856
            ],
            [
              9.8992016,
              51.5277856
            ],
            [
              9.8992016,
              51.5270502
            ]
          ]
        ]
      },
      "properties": {
        "tiles": [
          [
            0,
            0,
            0
          ],
          [
            1,
            1,
            0
          ],
          [
            2,
            2,
            1
          ],
          [
            3,
            4,
            2
          ],
          [
            4,
            8,
            5
          ],
          [
            5,
            16,
            10
          ],
          [
            6,
            33,
            21
          ],
          [
            7,
            67,
            42
          ],
          [
            8,
            135,
            85
          ],
          [
            9,
            270,
            170
          ],
          [
            10,
            540,
            340
          ],
          [
            11,
            1080,
            680
          ],
          [
            12,
            2160,
            1361
          ],
          [
            13,
            4321,
            2723
          ],
          [
            14,
            8642,
            5446
          ],
          [
            15,
            17285,
            10893
          ],
          [
            16,
            34570,
            21786
          ]
        ]
      }
    }
  ]
}