<?xml version='1.0' encoding='UTF-8'?>
<osm version='0.6' generator='osm_tool'>
  <node id='-32952' action='modify' timestamp='1970-01-01T00:00:00Z' lat='51.5272859' lon='9.8995837'>
    <tag k='natural' v='tree'/>
    <tag k='upload' v='false'/>
    <tag k='meta' v='never-built'/>
    <tag k='projektemacher:url' v='https://never-built.goettingen.xyz/post/staedte-forum-1977/gemeindezentrum-grone-sued/index.html'/>
  </node>
  <node id='-32953' action='modify' timestamp='1970-01-01T00:00:00Z' lat='51.527235' lon='9.8995434'>
    <tag k='natural' v='tree'/>
    <tag k='upload' v='false'/>
    <tag k='meta' v='never-built'/>
    <tag k='projektemacher:url' v='https://never-built.goettingen.xyz/post/staedte-forum-1977/gemeindezentrum-grone-sued/index.html'/>
  </node>
  <node id='-32954' action='modify' timestamp='1970-01-01T00:00:00Z' lat='51.5272852' lon='9.8995825'>
    <tag k='natural' v='tree'/>
    <tag k='upload' v='false'/>
    <tag k='meta' v='never-built'/>
    <tag k='projektemacher:url' v='https://never-built.goettingen.xyz/post/staedte-forum-1977/gemeindezentrum-grone-sued/index.html'/>
  </node>
  <node id='-32955' action='modify' timestamp='1970-01-01T00:00:00Z' lat='51.5271591' lon='9.8995871'>
    <tag k='natural' v='tree'/>
    <tag k='upload' v='false'/>
    <tag k='meta' v='never-built'/>
    <tag k='projektemacher:url' v='https://never-built.goettingen.xyz/post/staedte-forum-1977/gemeindezentrum-grone-sued/index.html'/>
  </node>
  <node id='-32956' action='modify' timestamp='1970-01-01T00:00:00Z' lat='51.5271791' lon='9.899761'>
    <tag k='natural' v='tree'/>
    <tag k='upload' v='false'/>
    <tag k='meta' v='never-built'/>
    <tag k='projektemacher:url' v='https://never-built.goettingen.xyz/post/staedte-forum-1977/gemeindezentrum-grone-sued/index.html'/>
  </node>
  <node id='-32957' action='modify' timestamp='1970-01-01T00:00:00Z' lat='51.5274758' lon='9.8995192'>
    <tag k='natural' v='tree'/>
    <tag k='upload' v='false'/>
    <tag k='meta' v='never-built'/>
    <tag k='projektemacher:url' v='https://never-built.goettingen.xyz/post/staedte-forum-1977/gemeindezentrum-grone-sued/index.html'/>
  </node>
  <node id='-32958' action='modify' timestamp='1970-01-01T00:00:00Z' lat='51.5275417' lon='9.8995353'>
    <tag k='natural' v='tree'/>
    <tag k='upload' v='false'/>
    <tag k='meta' v='never-built'/>
    <tag k='projektemacher:url' v='https://never-built.goettingen.xyz/post/staedte-forum-1977/gemeindezentrum-grone-sued/index.html'/>
  </node>
  <node id='-32959' action='modify' timestamp='1970-01-01T00:00:00Z' lat='51.5275625' lon='9.8994455'>
    <tag k='natural' v='tree'/>
    <tag k='upload' v='false'/>
    <tag k='meta' v='never-built'/>
    <tag k='projektemacher:url' v='https://never-built.goettingen.xyz/post/staedte-forum-1977/gemeindezentrum-grone-sued/index.html'/>
  </node>
  <node id='-32960' action='modify' timestamp='1970-01-01T00:00:00Z' lat='51.5276019' lon='9.8993891'>
    <tag k='natural' v='tree'/>
    <tag k='upload' v='false'/>
    <tag k='meta' v='never-built'/>
    <tag k='projektemacher:url' v='https://never-built.goettingen.xyz/post/staedte-forum-1977/gemeindezentrum-grone-sued/index.html'/>
  </node>
  <node id='-32961' action='modify' timestamp='1970-01-01T00:00:00Z' lat='51.5276413' lon='9.8994086'>
    <tag k='natural' v='tree'/>
    <tag k='upload' v='false'/>
    <tag k='meta' v='never-built'/>
    <tag k='projektemacher:url' v='https://never-built.goettingen.xyz/post/staedte-forum-1977/gemeindezentrum-grone-sued/index.html'/>
  </node>
  <node id='-32962' action='modify' timestamp='1970-01-01T00:00:00Z' lat='51.527743' lon='9.8998278'>
    <tag k='natural' v='tree'/>
    <tag k='upload' v='false'/>
    <tag k='meta' v='never-built'/>
    <tag k='projektemacher:url' v='https://never-built.goettingen.xyz/post/staedte-forum-1977/gemeindezentrum-grone-sued/index.html'/>
  </node>
  <node id='-32963' action='modify' timestamp='1970-01-01T00:00:00Z' lat='51.5276305' lon='9.899647'>
    <tag k='natural' v='tree'/>
    <tag k='upload' v='false'/>
    <tag k='meta' v='never-built'/>
    <tag k='projektemacher:url' v='https://never-built.goettingen.xyz/post/staedte-forum-1977/gemeindezentrum-grone-sued/index.html'/>
  </node>
  <node id='-32964' action='modify' timestamp='1970-01-01T00:00:00Z' lat='51.5276133' lon='9.8992704'>
    <tag k='natural' v='tree'/>
    <tag k='upload' v='false'/>
    <tag k='meta' v='never-built'/>
    <tag k='projektemacher:url' v='https://never-built.goettingen.xyz/post/staedte-forum-1977/gemeindezentrum-grone-sued/index.html'/>
  </node>
  <node id='-32965' action='modify' timestamp='1970-01-01T00:00:00Z' lat='51.5276463' lon='9.8993326'>
    <tag k='natural' v='tree'/>
    <tag k='upload' v='false'/>
    <tag k='meta' v='never-built'/>
    <tag k='projektemacher:url' v='https://never-built.goettingen.xyz/post/staedte-forum-1977/gemeindezentrum-grone-sued/index.html'/>
  </node>
  <node id='-32966' action='modify' timestamp='1970-01-01T00:00:00Z' lat='51.5276853' lon='9.8994084'/>
  <node id='-32967' action='modify' timestamp='1970-01-01T00:00:00Z' lat='51.5275503' lon='9.8995025'/>
  <node id='-32968' action='modify' timestamp='1970-01-01T00:00:00Z' lat='51.5275947' lon='9.8996649'/>
  <node id='-32969' action='modify' timestamp='1970-01-01T00:00:00Z' lat='51.5276345' lon='9.8996372'/>
  <node id='-32970' action='modify' timestamp='1970-01-01T00:00:00Z' lat='51.5276474' lon='9.8996839'/>
  <node id='-32971' action='modify' timestamp='1970-01-01T00:00:00Z' lat='51.5276425' lon='9.8997027'/>
  <node id='-32972' action='modify' timestamp='1970-01-01T00:00:00Z' lat='51.5276323' lon='9.8997095'/>
  <node id='-32973' action='modify' timestamp='1970-01-01T00:00:00Z' lat='51.52766' lon='9.8998099'/>
  <node id='-32974' action='modify' timestamp='1970-01-01T00:00:00Z' lat='51.5276209' lon='9.8998376'/>
  <node id='-32975' action='modify' timestamp='1970-01-01T00:00:00Z' lat='51.5276355' lon='9.899891'/>
  <node id='-32976' action='modify' timestamp='1970-01-01T00:00:00Z' lat='51.5276462' lon='9.8998981'/>
  <node id='-32977' action='modify' timestamp='1970-01-01T00:00:00Z' lat='51.5277856' lon='9.8998002'/>
  <node id='-32978' action='modify' timestamp='1970-01-01T00:00:00Z' lat='51.5276975' lon='9.8994766'/>
  <node id='-32979' action='modify' timestamp='1970-01-01T00:00:00Z' lat='51.5276563' lon='9.8995042'/>
  <node id='-32980' action='modify' timestamp='1970-01-01T00:00:00Z' lat='51.5276543' lon='9.8994982'/>
  <node id='-32981' action='modify' timestamp='1970-01-01T00:00:00Z' lat='51.5276569' lon='9.8994887'/>
  <node id='-32982' action='modify' timestamp='1970-01-01T00:00:00Z' lat='51.5276932' lon='9.8994636'/>
  <node id='-32983' action='modify' timestamp='1970-01-01T00:00:00Z' lat='51.5277024' lon='9.8994665'/>
  <node id='-32984' action='modify' timestamp='1970-01-01T00:00:00Z' lat='51.5276973' lon='9.8995448'/>
  <node id='-32985' action='modify' timestamp='1970-01-01T00:00:00Z' lat='51.5273221' lon='9.8994843'/>
  <node id='-32986' action='modify' timestamp='1970-01-01T00:00:00Z' lat='51.5273301' lon='9.8995124'/>
  <node id='-32987' action='modify' timestamp='1970-01-01T00:00:00Z' lat='51.5273832' lon='9.8995451'/>
  <node id='-32988' action='modify' timestamp='1970-01-01T00:00:00Z' lat='51.5274571' lon='9.8994904'/>
  <node id='-32989' action='modify' timestamp='1970-01-01T00:00:00Z' lat='51.527525' lon='9.8994014'/>
  <node id='-32990' action='modify' timestamp='1970-01-01T00:00:00Z' lat='51.5275347' lon='9.8993381'/>
  <node id='-32991' action='modify' timestamp='1970-01-01T00:00:00Z' lat='51.5275273' lon='9.8992684'/>
  <node id='-32992' action='modify' timestamp='1970-01-01T00:00:00Z' lat='51.5274944' lon='9.8992108'/>
  <node id='-32993' action='modify' timestamp='1970-01-01T00:00:00Z' lat='51.5274161' lon='9.8992247'/>
  <node id='-32994' action='modify' timestamp='1970-01-01T00:00:00Z' lat='51.5273504' lon='9.8993346'/>
  <node id='-32995' action='modify' timestamp='1970-01-01T00:00:00Z' lat='51.5273298' lon='9.8994389'/>
  <node id='-32996' action='modify' timestamp='1970-01-01T00:00:00Z' lat='51.5273798' lon='9.8999321'/>
  <node id='-32997' action='modify' timestamp='1970-01-01T00:00:00Z' lat='51.5273561' lon='9.8998494'/>
  <node id='-32998' action='modify' timestamp='1970-01-01T00:00:00Z' lat='51.5273685' lon='9.8997988'/>
  <node id='-32999' action='modify' timestamp='1970-01-01T00:00:00Z' lat='51.5273452' lon='9.8997118'/>
  <node id='-33000' action='modify' timestamp='1970-01-01T00:00:00Z' lat='51.5273072' lon='9.8996879'/>
  <node id='-33001' action='modify' timestamp='1970-01-01T00:00:00Z' lat='51.5273131' lon='9.899683'/>
  <node id='-33002' action='modify' timestamp='1970-01-01T00:00:00Z' lat='51.5272948' lon='9.8996706'/>
  <node id='-33003' action='modify' timestamp='1970-01-01T00:00:00Z' lat='51.5272307' lon='9.8997153'/>
  <node id='-33004' action='modify' timestamp='1970-01-01T00:00:00Z' lat='51.527221' lon='9.8997536'/>
  <node id='-33005' action='modify' timestamp='1970-01-01T00:00:00Z' lat='51.5272281' lon='9.8997812'/>
  <node id='-33006' action='modify' timestamp='1970-01-01T00:00:00Z' lat='51.5273744' lon='9.8999135'/>
  <node id='-33007' action='modify' timestamp='1970-01-01T00:00:00Z' lat='51.52762' lon='9.8996646'/>
  <node id='-33008' action='modify' timestamp='1970-01-01T00:00:00Z' lat='51.527592' lon='9.8996846'/>
  <node id='-33009' action='modify' timestamp='1970-01-01T00:00:00Z' lat='51.5276038' lon='9.8997271'/>
  <node id='-33010' action='modify' timestamp='1970-01-01T00:00:00Z' lat='51.527582' lon='9.8997418'/>
  <node id='-33011' action='modify' timestamp='1970-01-01T00:00:00Z' lat='51.52761' lon='9.8998451'/>
  <node id='-33012' action='modify' timestamp='1970-01-01T00:00:00Z' lat='51.5275682' lon='9.8995992'/>
  <node id='-33013' action='modify' timestamp='1970-01-01T00:00:00Z' lat='51.5274091' lon='9.8997127'/>
  <node id='-33014' action='modify' timestamp='1970-01-01T00:00:00Z' lat='51.5274335' lon='9.8997973'/>
  <node id='-33015' action='modify' timestamp='1970-01-01T00:00:00Z' lat='51.5274536' lon='9.8997829'/>
  <node id='-33016' action='modify' timestamp='1970-01-01T00:00:00Z' lat='51.5274836' lon='9.8998906'/>
  <node id='-33017' action='modify' timestamp='1970-01-01T00:00:00Z' lat='51.5274324' lon='9.8999252'/>
  <node id='-33018' action='modify' timestamp='1970-01-01T00:00:00Z' lat='51.5274279' lon='9.8999416'/>
  <node id='-33019' action='modify' timestamp='1970-01-01T00:00:00Z' lat='51.527443' lon='9.8999969'/>
  <node id='-33020' action='modify' timestamp='1970-01-01T00:00:00Z' lat='51.5274593' lon='9.9000069'/>
  <node id='-33021' action='modify' timestamp='1970-01-01T00:00:00Z' lat='51.5275483' lon='9.8999442'/>
  <node id='-33022' action='modify' timestamp='1970-01-01T00:00:00Z' lat='51.5275551' lon='9.8999171'/>
  <node id='-33023' action='modify' timestamp='1970-01-01T00:00:00Z' lat='51.5275188' lon='9.8997844'/>
  <node id='-33024' action='modify' timestamp='1970-01-01T00:00:00Z' lat='51.5274147' lon='9.8998088'/>
  <node id='-33025' action='modify' timestamp='1970-01-01T00:00:00Z' lat='51.5274079' lon='9.8998356'/>
  <node id='-33026' action='modify' timestamp='1970-01-01T00:00:00Z' lat='51.5275211' lon='9.8996194'/>
  <node id='-33027' action='modify' timestamp='1970-01-01T00:00:00Z' lat='51.5274774' lon='9.8995558'/>
  <node id='-33028' action='modify' timestamp='1970-01-01T00:00:00Z' lat='51.5273957' lon='9.8996128'/>
  <node id='-33029' action='modify' timestamp='1970-01-01T00:00:00Z' lat='51.5273885' lon='9.8996398'/>
  <node id='-33030' action='modify' timestamp='1970-01-01T00:00:00Z' lat='51.5275376' lon='9.8996216'/>
  <node id='-33031' action='modify' timestamp='1970-01-01T00:00:00Z' lat='51.5275023' lon='9.8996471'/>
  <node id='-33032' action='modify' timestamp='1970-01-01T00:00:00Z' lat='51.5274772' lon='9.8995561'/>
  <node id='-33033' action='modify' timestamp='1970-01-01T00:00:00Z' lat='51.5275016' lon='9.8995393'/>
  <node id='-33034' action='modify' timestamp='1970-01-01T00:00:00Z' lat='51.5275175' lon='9.8995495'/>
  <node id='-33035' action='modify' timestamp='1970-01-01T00:00:00Z' lat='51.5273802' lon='9.8992733'/>
  <node id='-33036' action='modify' timestamp='1970-01-01T00:00:00Z' lat='51.5274538' lon='9.8992016'/>
  <node id='1366587831' action='modify' version='6' changeset='175712514' timestamp='2025-12-09T12:59:18Z' uid='16354439' user='unni-geo' lat='51.5272879' lon='9.8997384'/>
  <node id='3938290979' action='modify' version='2' changeset='175712514' timestamp='2025-12-09T12:59:18Z' uid='16354439' user='unni-geo' lat='51.5270502' lon='9.8998314'/>
  <node id='3938290983' action='modify' version='2' changeset='175712514' timestamp='2025-12-09T12:59:18Z' uid='16354439' user='unni-geo' lat='51.5271781' lon='9.9002706'/>
  <node id='3938290991' action='modify' version='2' changeset='175712514' timestamp='2025-12-09T12:59:18Z' uid='16354439' user='unni-geo' lat='51.5273259' lon='9.8996127'/>
  <node id='3938291001' action='modify' version='2' changeset='175712514' timestamp='2025-12-09T12:59:18Z' uid='16354439' user='unni-geo' lat='51.5274568' lon='9.9000632'/>
  <node id='13363579448' action='modify' version='1' changeset='175712514' timestamp='2025-12-09T12:59:18Z' uid='16354439' user='unni-geo' lat='51.5273124' lon='9.8997531'/>
  <node id='13363579449' action='modify' version='1' changeset='175712514' timestamp='2025-12-09T12:59:18Z' uid='16354439' user='unni-geo' lat='51.5273668' lon='9.8999418'/>
  <node id='13363579452' action='modify' version='1' changeset='175712514' timestamp='2025-12-09T12:59:18Z' uid='16354439' user='unni-geo' lat='51.5270978' lon='9.8997822'/>
  <node id='13363579453' action='modify' version='1' changeset='175712514' timestamp='2025-12-09T12:59:18Z' uid='16354439' user='unni-geo' lat='51.5271009' lon='9.8997929'/>
  <way id='-50559' action='modify' timestamp='1970-01-01T00:00:00Z'>
    <nd ref='-32966'/>
    <nd ref='-32967'/>
    <nd ref='-32968'/>
    <nd ref='-32969'/>
    <nd ref='-32970'/>
    <nd ref='-32971'/>
    <nd ref='-32972'/>
    <nd ref='-32973'/>
    <nd ref='-32974'/>
    <nd ref='-32975'/>
    <nd ref='-32976'/>
    <nd ref='-32977'/>
    <nd ref='-32978'/>
    <nd ref='-32979'/>
    <nd ref='-32980'/>
    <nd ref='-32981'/>
    <nd ref='-32982'/>
    <nd ref='-32983'/>
    <nd ref='-32966'/>
    <tag k='amenity' v='parking_space'/>
    <tag k='upload' v='false'/>
    <tag k='meta' v='never-built'/>
    <tag k='projektemacher:url' v='https://never-built.goettingen.xyz/post/staedte-forum-1977/gemeindezentrum-grone-sued/index.html'/>
  </way>
  <way id='-50560' action='modify' timestamp='1970-01-01T00:00:00Z'>
    <nd ref='-32985'/>
    <nd ref='-32986'/>
    <nd ref='-32987'/>
    <nd ref='-32988'/>
    <nd ref='-32989'/>
    <nd ref='-32990'/>
    <nd ref='-32991'/>
    <nd ref='-32992'/>
    <nd ref='-33036'/>
    <nd ref='-32993'/>
    <nd ref='-33035'/>
    <nd ref='-32994'/>
    <nd ref='-32995'/>
    <nd ref='-32985'/>
    <tag k='natural' v='water'/>
    <tag k='upload' v='false'/>
    <tag k='water' v='pond'/>
    <tag k='meta' v='never-built'/>
    <tag k='projektemacher:url' v='https://never-built.goettingen.xyz/post/staedte-forum-1977/gemeindezentrum-grone-sued/index.html'/>
  </way>
  <way id='-50561' action='modify' timestamp='1970-01-01T00:00:00Z'>
    <nd ref='13363579449'/>
    <nd ref='-32996'/>
    <nd ref='-33006'/>
    <nd ref='-32997'/>
    <nd ref='-32998'/>
    <nd ref='-32999'/>
    <nd ref='-33000'/>
    <nd ref='-33001'/>
    <nd ref='-33002'/>
    <nd ref='-33003'/>
    <nd ref='-33004'/>
    <nd ref='-33005'/>
    <nd ref='1366587831'/>
    <nd ref='13363579448'/>
    <nd ref='13363579449'/>
    <tag k='building:levels' v='1'/>
    <tag k='building:part' v='true'/>
    <tag k='upload' v='false'/>
    <tag k='meta' v='never-built'/>
    <tag k='projektemacher:url' v='https://never-built.goettingen.xyz/post/staedte-forum-1977/gemeindezentrum-grone-sued/index.html'/>
  </way>
  <way id='-50562' action='modify' timestamp='1970-01-01T00:00:00Z'>
    <nd ref='-33007'/>
    <nd ref='-33008'/>
    <nd ref='-33009'/>
    <nd ref='-33010'/>
    <nd ref='-33011'/>
    <nd ref='-32974'/>
    <nd ref='-32973'/>
    <nd ref='-32972'/>
    <nd ref='-33007'/>
    <tag k='building:levels' v='1'/>
    <tag k='building:part' v='true'/>
    <tag k='upload' v='false'/>
    <tag k='meta' v='never-built'/>
    <tag k='projektemacher:url' v='https://never-built.goettingen.xyz/post/staedte-forum-1977/gemeindezentrum-grone-sued/index.html'/>
  </way>
  <way id='-50563' action='modify' timestamp='1970-01-01T00:00:00Z'>
    <nd ref='-33012'/>
    <nd ref='-33030'/>
    <nd ref='-33034'/>
    <nd ref='-33033'/>
    <nd ref='-33032'/>
    <nd ref='-33031'/>
    <nd ref='-33013'/>
    <nd ref='-33014'/>
    <nd ref='-33015'/>
    <nd ref='-33016'/>
    <nd ref='-33017'/>
    <nd ref='-33018'/>
    <nd ref='-33019'/>
    <nd ref='-33020'/>
    <nd ref='-33021'/>
    <nd ref='-33022'/>
    <nd ref='-33023'/>
    <nd ref='-33010'/>
    <nd ref='-33009'/>
    <nd ref='-33008'/>
    <nd ref='-33012'/>
    <tag k='building' v='true'/>
    <tag k='building:levels' v='1'/>
    <tag k='upload' v='false'/>
    <tag k='meta' v='never-built'/>
    <tag k='projektemacher:url' v='https://never-built.goettingen.xyz/post/staedte-forum-1977/gemeindezentrum-grone-sued/index.html'/>
  </way>
  <way id='-50564' action='modify' timestamp='1970-01-01T00:00:00Z'>
    <nd ref='-33014'/>
    <nd ref='-33024'/>
    <nd ref='-33025'/>
    <nd ref='-33017'/>
    <tag k='barrier' v='wall'/>
    <tag k='upload' v='false'/>
    <tag k='meta' v='never-built'/>
    <tag k='projektemacher:url' v='https://never-built.goettingen.xyz/post/staedte-forum-1977/gemeindezentrum-grone-sued/index.html'/>
  </way>
  <way id='-50565' action='modify' timestamp='1970-01-01T00:00:00Z'>
    <nd ref='-33027'/>
    <nd ref='-33028'/>
    <nd ref='-33029'/>
    <nd ref='-33013'/>
    <tag k='barrier' v='wall'/>
    <tag k='upload' v='false'/>
    <tag k='meta' v='never-built'/>
    <tag k='projektemacher:url' v='https://never-built.goettingen.xyz/post/staedte-forum-1977/gemeindezentrum-grone-sued/index.html'/>
  </way>
  <way id='390670620' action='modify' version='5' changeset='176788533' timestamp='2026-01-03T16:17:17Z' uid='18511019' user='Senihtu'>
    <nd ref='3938290983'/>
    <nd ref='3938291001'/>
    <nd ref='3938290991'/>
    <nd ref='13363579452'/>
    <nd ref='13363579453'/>
    <nd ref='3938290979'/>
    <nd ref='3938290983'/>
    <tag k='addr:city' v='Göttingen'/>
    <tag k='addr:country' v='DE'/>
    <tag k='addr:housenumber' v='6'/>
    <tag k='addr:place' v='Jonaplatz'/>
    <tag k='addr:postcode' v='37081'/>
    <tag k='addr:suburb' v='Grone'/>
    <tag k='amenity' v='place_of_worship'/>
    <tag k='denomination' v='lutheran'/>
    <tag k='name' v='Ev.-luth. Jonakirche, kirchl. Gemeindehaus, Pfarrbüro'/>
    <tag k='religion' v='christian'/>
    <tag k='upload' v='false'/>
    <tag k='meta' v='never-built'/>
    <tag k='projektemacher:url' v='https://never-built.goettingen.xyz/post/staedte-forum-1977/gemeindezentrum-grone-sued/index.html'/>
  </way>
</osm>
