{
  "type": "FeatureCollection",
  "features": [{
  "type": "Feature",
  "properties": {
      "name": "Institutsneubauten für ein biophysikalisch-chemisches Zentrum der Max-Planck-Gesellschaft zur Förderung der Wissenschaften e. V. in Göttingen-Nikolausberg",
      "popupContent": "\u003cdiv class=\"geojsonPopup\"\u003e\n    \u003cdiv class=\"title\"\u003e\n        Institutsneubauten für ein biophysikalisch-chemisches Zentrum der Max-Planck-Gesellschaft zur Förderung der Wissenschaften e. V. in Göttingen-Nikolausberg\n    \u003c/div\u003e\n    \u003cdiv class=\"popup-content\"\u003e\n        Das MPI am Fassberg…\n    \u003c/div\u003e\u003cdiv class=\"link\"\u003e\u003ca href=\"/post/staedte-forum-1-71-goettingen/mpi/\"\u003eMehr lesen...\u003c/a\u003e\n    \u003c/div\u003e\n\u003c/div\u003e\n"
  },
  "geometry": {
    "type": "Point",
    "coordinates": [9.9633186,51.5605084]
  }
}




,{
  "type": "Feature",
  "properties": {
      "name": "Strukturanalyse Göttingen-Nikolausberg",
      "popupContent": "\u003cdiv class=\"geojsonPopup\"\u003e\n    \u003cdiv class=\"title\"\u003e\n        Strukturanalyse Göttingen-Nikolausberg\n    \u003c/div\u003e\n    \u003cdiv class=\"popup-content\"\u003e\n        \u003cp\u003eEine Strukturanalyse von \n\u003cpre\u003e\u003ccode\u003e    \u003ca data-wikidata-entity=\"Q112007\" href=\"https://en.wikipedia.org/wiki/Lucy_Hillebrand\" target=\"_blank\"\u003eLucy Hillebrand\u003c/a\u003e\u0026hellip;\u003c/p\u003e\n\u003c/code\u003e\u003c/pre\u003e\n    \u003c/div\u003e\u003cdiv class=\"link\"\u003e\u003ca href=\"/post/remus-architektur-heute/nikolausberg/\"\u003eMehr lesen...\u003c/a\u003e\n    \u003c/div\u003e\n\u003c/div\u003e\n"
  },
  "geometry": {
    "type": "Point",
    "coordinates": [9.985167,51.556389]
  }
}




,{
  "type": "Feature",
  "properties": {
      "name": "Weende an der Lutter",
      "popupContent": "\u003cdiv class=\"geojsonPopup\"\u003e\n    \u003cdiv class=\"title\"\u003e\n        Weende an der Lutter\n    \u003c/div\u003e\n    \u003cdiv class=\"popup-content\"\u003e\n        Ein früher Entwurf für das Wohngebiet „An der Lutter“ in Weende…\n    \u003c/div\u003e\u003cdiv class=\"link\"\u003e\u003ca href=\"/post/remus-architektur-heute/weende-an-der-lutter/\"\u003eMehr lesen...\u003c/a\u003e\n    \u003c/div\u003e\n\u003c/div\u003e\n"
  },
  "geometry": {
    "type": "Point",
    "coordinates": [9.937655,51.555552]
  }
}




,{
  "type": "Feature",
  "properties": {
      "name": "Das Verkehrssystem der Göttinger Innenstadt",
      "popupContent": "\u003cdiv class=\"geojsonPopup\"\u003e\n    \u003cdiv class=\"title\"\u003e\n        Das Verkehrssystem der Göttinger Innenstadt\n    \u003c/div\u003e\n    \u003cdiv class=\"popup-content\"\u003e\n        Eine weitere Planungsvariante der Ost-Tangente…\n    \u003c/div\u003e\u003cdiv class=\"link\"\u003e\u003ca href=\"/post/staedte-forum-1977/verkehrssystem/\"\u003eMehr lesen...\u003c/a\u003e\n    \u003c/div\u003e\n\u003c/div\u003e\n"
  },
  "geometry": {
    "type": "Point",
    "coordinates": [9.942461,51.537681]
  }
}




,{
  "type": "Feature",
  "properties": {
      "name": "Gemeindezentrum Grone-Süd",
      "popupContent": "\u003cdiv class=\"geojsonPopup\"\u003e\n    \u003cdiv class=\"title\"\u003e\n        Gemeindezentrum Grone-Süd\n    \u003c/div\u003e\n    \u003cdiv class=\"popup-content\"\u003e\n        Das Gemeindezentrum in Grone besteht noch heute…\n    \u003c/div\u003e\u003cdiv class=\"link\"\u003e\u003ca href=\"/post/staedte-forum-1977/gemeindezentrum-grone-sued/\"\u003eMehr lesen...\u003c/a\u003e\n    \u003c/div\u003e\n\u003c/div\u003e\n"
  },
  "geometry": {
    "type": "Point",
    "coordinates": [9.8997267,51.5274551]
  }
}




,{
  "type": "Feature",
  "properties": {
      "name": "Sanierungsgebiet &#34;Neustadt-Ostseite&#34;",
      "popupContent": "\u003cdiv class=\"geojsonPopup\"\u003e\n    \u003cdiv class=\"title\"\u003e\n        Sanierungsgebiet \u0026#34;Neustadt-Ostseite\u0026#34;\n    \u003c/div\u003e\n    \u003cdiv class=\"popup-content\"\u003e\n        Eine weitere Variante einer umgestalteten Neustadt…\n    \u003c/div\u003e\u003cdiv class=\"link\"\u003e\u003ca href=\"/post/staedte-forum-1977/neustadt/\"\u003eMehr lesen...\u003c/a\u003e\n    \u003c/div\u003e\n\u003c/div\u003e\n"
  },
  "geometry": {
    "type": "Point",
    "coordinates": [9.9276414,51.533846]
  }
}




,{
  "type": "Feature",
  "properties": {
      "name": "Altenwohnstift am Warteberg (Planung) in Göttingen-Herberhausen",
      "popupContent": "\u003cdiv class=\"geojsonPopup\"\u003e\n    \u003cdiv class=\"title\"\u003e\n        Altenwohnstift am Warteberg (Planung) in Göttingen-Herberhausen\n    \u003c/div\u003e\n    \u003cdiv class=\"popup-content\"\u003e\n        Eine Seniorenresidenz im Wald bei Herberhausen…\n    \u003c/div\u003e\u003cdiv class=\"link\"\u003e\u003ca href=\"/post/bauinformation-nr1-1967/warteberg/\"\u003eMehr lesen...\u003c/a\u003e\n    \u003c/div\u003e\n\u003c/div\u003e\n"
  },
  "geometry": {
    "type": "Point",
    "coordinates": [9.968157,51.547273]
  }
}




,{
  "type": "Feature",
  "properties": {
      "name": "Demonstrativbauvorhaben Holtenser Berg, Göttingen",
      "popupContent": "\u003cdiv class=\"geojsonPopup\"\u003e\n    \u003cdiv class=\"title\"\u003e\n        Demonstrativbauvorhaben Holtenser Berg, Göttingen\n    \u003c/div\u003e\n    \u003cdiv class=\"popup-content\"\u003e\n        Die Siedlung auf dem Holtenser Berg durchlief mehrere Planungsphasen…\n    \u003c/div\u003e\u003cdiv class=\"link\"\u003e\u003ca href=\"/post/bauinformation-nr1-1967/holtenser-berg/\"\u003eMehr lesen...\u003c/a\u003e\n    \u003c/div\u003e\n\u003c/div\u003e\n"
  },
  "geometry": {
    "type": "Point",
    "coordinates": [9.904611,51.561513]
  }
}




,{
  "type": "Feature",
  "properties": {
      "name": "Bauten für den Verkehr",
      "popupContent": "\u003cdiv class=\"geojsonPopup\"\u003e\n    \u003cdiv class=\"title\"\u003e\n        Bauten für den Verkehr\n    \u003c/div\u003e\n    \u003cdiv class=\"popup-content\"\u003e\n        Göttingen als autogerechte Stadt…\n    \u003c/div\u003e\u003cdiv class=\"link\"\u003e\u003ca href=\"/post/bauinformation-nr1-1967/verkehr/\"\u003eMehr lesen...\u003c/a\u003e\n    \u003c/div\u003e\n\u003c/div\u003e\n"
  },
  "geometry": {
    "type": "Point",
    "coordinates": [9.942461,51.537681]
  }
}




,{
  "type": "Feature",
  "properties": {
      "name": "Studentenwohnheim Papenberg",
      "popupContent": "\u003cdiv class=\"geojsonPopup\"\u003e\n    \u003cdiv class=\"title\"\u003e\n        Studentenwohnheim Papenberg\n    \u003c/div\u003e\n    \u003cdiv class=\"popup-content\"\u003e\n        Dieses futuristische Hochhaus für Studierende wurde nie gebaut…\n    \u003c/div\u003e\u003cdiv class=\"link\"\u003e\u003ca href=\"/post/bauinformation-nr1-1967/papenberg/\"\u003eMehr lesen...\u003c/a\u003e\n    \u003c/div\u003e\n\u003c/div\u003e\n"
  },
  "geometry": {
    "type": "Point",
    "coordinates": [9.952089,51.553307]
  }
}




,{
  "type": "Feature",
  "properties": {
      "name": "Medizinische Fakultät",
      "popupContent": "\u003cdiv class=\"geojsonPopup\"\u003e\n    \u003cdiv class=\"title\"\u003e\n        Medizinische Fakultät\n    \u003c/div\u003e\n    \u003cdiv class=\"popup-content\"\u003e\n        Ein früher Entwurf des Klinikums…\n    \u003c/div\u003e\u003cdiv class=\"link\"\u003e\u003ca href=\"/post/bauinformation-nr1-1967/klinikum/\"\u003eMehr lesen...\u003c/a\u003e\n    \u003c/div\u003e\n\u003c/div\u003e\n"
  },
  "geometry": {
    "type": "Point",
    "coordinates": [9.943691,51.550553]
  }
}




,{
  "type": "Feature",
  "properties": {
      "name": "Geplante Bauvorhaben",
      "popupContent": "\u003cdiv class=\"geojsonPopup\"\u003e\n    \u003cdiv class=\"title\"\u003e\n        Geplante Bauvorhaben\n    \u003c/div\u003e\n    \u003cdiv class=\"popup-content\"\u003e\n        Die Volksbank mit einem zweigeschossigen Sockel…\n    \u003c/div\u003e\u003cdiv class=\"link\"\u003e\u003ca href=\"/post/bauinformation-nr1-1967/iduna-zentrum-volksbank/\"\u003eMehr lesen...\u003c/a\u003e\n    \u003c/div\u003e\n\u003c/div\u003e\n"
  },
  "geometry": {
    "type": "Point",
    "coordinates": [9.939042,51.530107]
  }
}




,{
  "type": "Feature",
  "properties": {
      "name": "Moderner Städtebau Bebauungsplan am Habichtsweg",
      "popupContent": "\u003cdiv class=\"geojsonPopup\"\u003e\n    \u003cdiv class=\"title\"\u003e\n        Moderner Städtebau Bebauungsplan am Habichtsweg\n    \u003c/div\u003e\n    \u003cdiv class=\"popup-content\"\u003e\n        Terrassenförmige Wohnbebauung am Wartberg…\n    \u003c/div\u003e\u003cdiv class=\"link\"\u003e\u003ca href=\"/post/staedte-forum-1-71-goettingen/habichts-weg/\"\u003eMehr lesen...\u003c/a\u003e\n    \u003c/div\u003e\n\u003c/div\u003e\n"
  },
  "geometry": {
    "type": "Point",
    "coordinates": [9.959576,51.543386]
  }
}




,{
  "type": "Feature",
  "properties": {
      "name": "Weende Nord",
      "popupContent": "\u003cdiv class=\"geojsonPopup\"\u003e\n    \u003cdiv class=\"title\"\u003e\n        Weende Nord\n    \u003c/div\u003e\n    \u003cdiv class=\"popup-content\"\u003e\n        Die Neuordnung von Weende Nord ist deutlich weniger umfangreich umgesetzt worden…\n    \u003c/div\u003e\u003cdiv class=\"link\"\u003e\u003ca href=\"/post/staedte-forum-1-71-goettingen/weende-nord/\"\u003eMehr lesen...\u003c/a\u003e\n    \u003c/div\u003e\n\u003c/div\u003e\n"
  },
  "geometry": {
    "type": "Point",
    "coordinates": [9.933895,51.569256]
  }
}




,{
  "type": "Feature",
  "properties": {
      "name": "Sanierung Neustadt",
      "popupContent": "\u003cdiv class=\"geojsonPopup\"\u003e\n    \u003cdiv class=\"title\"\u003e\n        Sanierung Neustadt\n    \u003c/div\u003e\n    \u003cdiv class=\"popup-content\"\u003e\n        Die planierte Neustadt…\n    \u003c/div\u003e\u003cdiv class=\"link\"\u003e\u003ca href=\"/post/staedte-forum-1-71-goettingen/neustadt/\"\u003eMehr lesen...\u003c/a\u003e\n    \u003c/div\u003e\n\u003c/div\u003e\n"
  },
  "geometry": {
    "type": "Point",
    "coordinates": [9.9276414,51.533846]
  }
}




,{
  "type": "Feature",
  "properties": {
      "name": "Volksbank Göttingen eGmbH",
      "popupContent": "\u003cdiv class=\"geojsonPopup\"\u003e\n    \u003cdiv class=\"title\"\u003e\n        Volksbank Göttingen eGmbH\n    \u003c/div\u003e\n    \u003cdiv class=\"popup-content\"\u003e\n        Ein nie realisierter Wallaufgang…\n    \u003c/div\u003e\u003cdiv class=\"link\"\u003e\u003ca href=\"/post/staedte-forum-1-71-goettingen/volksbank/\"\u003eMehr lesen...\u003c/a\u003e\n    \u003c/div\u003e\n\u003c/div\u003e\n"
  },
  "geometry": {
    "type": "Point",
    "coordinates": [9.939724,51.530281]
  }
}




,{
  "type": "Feature",
  "properties": {
      "name": "Bauvorhaben Lohmühlenweg",
      "popupContent": "\u003cdiv class=\"geojsonPopup\"\u003e\n    \u003cdiv class=\"title\"\u003e\n        Bauvorhaben Lohmühlenweg\n    \u003c/div\u003e\n    \u003cdiv class=\"popup-content\"\u003e\n        Ein Hochhaus für die Innenstadt…\n    \u003c/div\u003e\u003cdiv class=\"link\"\u003e\u003ca href=\"/post/staedte-forum-1-71-goettingen/lohmuehlenweg/\"\u003eMehr lesen...\u003c/a\u003e\n    \u003c/div\u003e\n\u003c/div\u003e\n"
  },
  "geometry": {
    "type": "Point",
    "coordinates": [9.931259,51.530537]
  }
}




,{
  "type": "Feature",
  "properties": {
      "name": "Nahziele der städtischen Verkehrsentwicklung unter Berücksichtigung des fließenden und ruhenden Verkehrs",
      "popupContent": "\u003cdiv class=\"geojsonPopup\"\u003e\n    \u003cdiv class=\"title\"\u003e\n        Nahziele der städtischen Verkehrsentwicklung unter Berücksichtigung des fließenden und ruhenden Verkehrs\n    \u003c/div\u003e\n    \u003cdiv class=\"popup-content\"\u003e\n        Der Ringschluss mit dem Bulldozer…\n    \u003c/div\u003e\u003cdiv class=\"link\"\u003e\u003ca href=\"/post/staedte-forum-1-71-goettingen/verkehrsentwicklung/\"\u003eMehr lesen...\u003c/a\u003e\n    \u003c/div\u003e\n\u003c/div\u003e\n"
  },
  "geometry": {
    "type": "Point",
    "coordinates": [9.942461,51.537681]
  }
}




,{
  "type": "Feature",
  "properties": {
      "name": "Wohnsiedlung Holtenser Berg",
      "popupContent": "\u003cdiv class=\"geojsonPopup\"\u003e\n    \u003cdiv class=\"title\"\u003e\n        Wohnsiedlung Holtenser Berg\n    \u003c/div\u003e\n    \u003cdiv class=\"popup-content\"\u003e\n        Der Holtenser Berg mit einem Turm…\n    \u003c/div\u003e\u003cdiv class=\"link\"\u003e\u003ca href=\"/post/staedte-forum-1-71-goettingen/holtenser-berg/\"\u003eMehr lesen...\u003c/a\u003e\n    \u003c/div\u003e\n\u003c/div\u003e\n"
  },
  "geometry": {
    "type": "Point",
    "coordinates": [9.904611,51.561513]
  }
}




,{
  "type": "Feature",
  "properties": {
      "name": "Medizinische Fakultät",
      "popupContent": "\u003cdiv class=\"geojsonPopup\"\u003e\n    \u003cdiv class=\"title\"\u003e\n        Medizinische Fakultät\n    \u003c/div\u003e\n    \u003cdiv class=\"popup-content\"\u003e\n        Ein „vollständiger“ Entwurf für das Klinikum…\n    \u003c/div\u003e\u003cdiv class=\"link\"\u003e\u003ca href=\"/post/staedte-forum-1-71-goettingen/klinikum/\"\u003eMehr lesen...\u003c/a\u003e\n    \u003c/div\u003e\n\u003c/div\u003e\n"
  },
  "geometry": {
    "type": "Point",
    "coordinates": [9.943691,51.550553]
  }
}




,{
  "type": "Feature",
  "properties": {
      "name": "Ausbau Geisteswissenschaftliches Zentrum",
      "popupContent": "\u003cdiv class=\"geojsonPopup\"\u003e\n    \u003cdiv class=\"title\"\u003e\n        Ausbau Geisteswissenschaftliches Zentrum\n    \u003c/div\u003e\n    \u003cdiv class=\"popup-content\"\u003e\n        Die drei blauen Türme waren der Anlass für dieses Blog…\n    \u003c/div\u003e\u003cdiv class=\"link\"\u003e\u003ca href=\"/post/staedte-forum-1-71-goettingen/gwz/\"\u003eMehr lesen...\u003c/a\u003e\n    \u003c/div\u003e\n\u003c/div\u003e\n"
  },
  "geometry": {
    "type": "Point",
    "coordinates": [9.935313,51.541721]
  }
}




]
}
