{
  "type": "FeatureCollection",
  "features": [
    {
      "type": "Feature",
      "geometry": {
        "type": "Polygon",
        "coordinates": [
          [
            [
              9.9340954,
              51.5424342
            ],
            [
              9.9371771,
              51.5424342
            ],
            [
              9.9371771,
              51.5435311
            ],
            [
              9.9340954,
              51.5435311
            ],
            [
              9.9340954,
              51.5424342
            ]
          ]
        ]
      },
      "properties": {
        "tiles": [
          [
            0,
            0,
            0
          ],
          [
            1,
            1,
            0
          ],
          [
            2,
            2,
            1
          ],
          [
            3,
            4,
            2
          ],
          [
            4,
            8,
            5
          ],
          [
            5,
            16,
            10
          ],
          [
            6,
            33,
            21
          ],
          [
            7,
            67,
            42
          ],
          [
            8,
            135,
            85
          ],
          [
            9,
            270,
            170
          ],
          [
            10,
            540,
            340
          ],
          [
            11,
            1080,
            680
          ],
          [
            12,
            2161,
            1361
          ],
          [
            13,
            4322,
            2722
          ],
          [
            14,
            8644,
            5445
          ],
          [
            15,
            17288,
            10890
          ],
          [
            15,
            17288,
            10891
          ],
          [
            16,
            34576,
            21781
          ],
          [
            16,
            34577,
            21781
          ],
          [
            16,
            34576,
            21782
          ],
          [
            16,
            34577,
            21782
          ]
        ]
      }
    }
  ]
}